[{"OBJECT_NAME":"TRANSPORTER-10 OBJECT AG","OBJECT_ID":"2024-043AG","EPOCH":"2026-03-09T22:12:45.387648","MEAN_MOTION":15.30759727,"ECCENTRICITY":0.00093005,"INCLINATION":97.5471,"RA_OF_ASC_NODE":205.7101,"ARG_OF_PERICENTER":226.5958,"MEAN_ANOMALY":133.4509,"EPHEMERIS_TYPE":0,"CLASSIFICATION_TYPE":"U","NORAD_CAT_ID":59128,"ELEMENT_SET_NO":999,"REV_AT_EPOCH":11192,"BSTAR":0.00032170115,"MEAN_MOTION_DOT":9.498e-5,"MEAN_MOTION_DDOT":0},{"OBJECT_NAME":"STARLINK-32830","OBJECT_ID":"2025-034F","EPOCH":"2026-03-09T17:39:56.874816","MEAN_MOTION":15.30208554,"ECCENTRICITY":0.00015752,"INCLINATION":53.1578,"RA_OF_ASC_NODE":257.9268,"ARG_OF_PERICENTER":135.6995,"MEAN_ANOMALY":224.4132,"EPHEMERIS_TYPE":0,"CLASSIFICATION_TYPE":"U","NORAD_CAT_ID":63034,"ELEMENT_SET_NO":999,"REV_AT_EPOCH":5909,"BSTAR":0.00062718239,"MEAN_MOTION_DOT":0.00018267,"MEAN_MOTION_DDOT":0}]
